GLOBALSTAR M057         
1 25943U 99058A   24246.53024945 -.00000002  00000+0  82200-3 0  9991
2 25943  51.9973  84.5522 0002846 126.0250 234.0864 12.24793855131683
GLOBALSTAR M059         
1 25944U 99058B   24246.39247904 -.00000056  00000+0  36948-3 0  9995
2 25944  51.9996 265.7446 0000394 103.6179   2.6014 11.99964880539490
GLOBALSTAR M056         
1 25945U 99058C   24246.55933906 -.00000052  00000+0  41252-3 0  9998
2 25945  51.9947 274.6376 0000608 321.3623 206.8593 12.04777000127956
GLOBALSTAR M031         
1 25946U 99058D   24246.58257753  .00000015  00000+0  10720-2 0  9994
2 25946  51.9949 184.1171 0001555 333.3332 197.8845 12.16015212129559
GLOBALSTAR M039         
1 25961U 99062A   24246.57994319 -.00000049  00000+0  30532-3 0  9993
2 25961  51.9847  64.6945 0003586  74.4635 285.6627 12.62301739143899
GLOBALSTAR M034         
1 25962U 99062B   24246.57103455 -.00000054  00000+0  42916-3 0  9992
2 25962  51.9890  39.0131 0013499 215.4561 220.7425 11.79431845104454
GLOBALSTAR M029         
1 25963U 99062C   24246.48046846 -.00000060  00000+0  32863-3 0  9990
2 25963  51.9796 153.7879 0002177 284.5421 246.6600 11.99882841134583
GLOBALSTAR M061         
1 25964U 99062D   24246.36416302 -.00000092  00000+0 -18861-3 0  9994
2 25964  51.9761 219.7715 0005849 142.3861   5.2332 11.76764534 87295
